COSMOS 2151             
1 21422U 91042A   25329.80867032  .00002667  00000+0  21424-3 0  9998
2 21422  82.4969 183.8174 0013905  53.7501 306.5005 14.99597708847627
SL-14 R/B               
1 21423U 91042B   25329.42664801  .00000567  00000+0  68938-4 0  9995
2 21423  82.4915 317.9604 0015971 219.6863 140.3184 14.81715312837632
ERS-1                   
1 21574U 91050A   25329.77513292  .00000368  00000+0  13248-3 0  9998
2 21574  98.7915 340.4052 0032566 148.9951 211.3167 14.39345399800781
ARIANE 40 R/B           
1 21610U 91050F   25329.72638301  .00000436  00000+0  14339-3 0  9991
2 21610  98.2188  20.7691 0003794  47.4060 312.7450 14.42792252804009
INTERCOSMOS 25          
1 21819U 91086A   25329.62769074  .00001234  00000+0  24253-3 0  9995
2 21819  82.6067  12.9232 1487479 341.2929  13.8569 12.11642564484089
SL-8 R/B                
1 21876U 92008B   25329.83154965  .00000145  00000+0  13280-3 0  9991
2 21876  82.9267 345.0244 0035990  65.9040 107.7425 13.75953579695136
SL-8 R/B                
1 21938U 92020B   25329.82130854  .00000080  00000+0  67618-4 0  9997
2 21938  82.9316 230.8792 0027877 226.2651 202.7691 13.75523771686851
USA 81                  
1 21949U 92023A   25329.70876682  .00000213  00000+0  71574-4 0  9999
2 21949  85.0095 191.3972 0002208  66.5722 293.5703 14.32318084 79904
COSMOS 2219             
1 22219U 92076A   25329.81792265 -.00000187  00000+0 -73562-4 0  9995
2 22219  71.0605 235.2043 0018525 350.8818   9.1965 14.14066535703690
SL-16 R/B               
1 22220U 92076B   25329.64086806  .00000285  00000+0  16617-3 0  9999
2 22220  71.0013  47.5495 0015097 256.2658 210.9967 14.16837378707097
COSMOS 2221             
1 22236U 92080A   25329.62463689  .00002693  00000+0  23947-3 0  9996
2 22236  82.5055  18.7053 0014709 176.2878 183.8456 14.95666375765236
SL-16 R/B               
1 22285U 92093B   25329.78299912 -.00000189  00000+0 -72531-4 0  9991
2 22285  71.0214 222.3898 0002044 122.5434 237.5886 14.15427592698452
