CCSDS_OMM_VERS = 2.0
CREATION_DATE  = 
ORIGINATOR     = 

OBJECT_NAME    = COSMOS 2151
OBJECT_ID      = 1991-042A
CENTER_NAME    = EARTH
REF_FRAME      = TEME
TIME_SYSTEM    = UTC
MEAN_ELEMENT_THEORY = SGP/SGP4

EPOCH          = 2025-11-25T19:24:29.115648
MEAN_MOTION    = 14.99597708
ECCENTRICITY   = .0013905
INCLINATION    = 82.4969
RA_OF_ASC_NODE = 183.8174
ARG_OF_PERICENTER = 53.7501
MEAN_ANOMALY   = 306.5005

EPHEMERIS_TYPE = 0
CLASSIFICATION_TYPE = U
NORAD_CAT_ID   = 21422
ELEMENT_SET_NO = 999
REV_AT_EPOCH   = 84762
BSTAR          = .21424E-3
MEAN_MOTION_DOT = .2667E-4
MEAN_MOTION_DDOT = 0

CCSDS_OMM_VERS = 2.0
CREATION_DATE  = 
ORIGINATOR     = 

OBJECT_NAME    = SL-14 R/B
OBJECT_ID      = 1991-042B
CENTER_NAME    = EARTH
REF_FRAME      = TEME
TIME_SYSTEM    = UTC
MEAN_ELEMENT_THEORY = SGP/SGP4

EPOCH          = 2025-11-25T10:14:22.388064
MEAN_MOTION    = 14.81715312
ECCENTRICITY   = .0015971
INCLINATION    = 82.4915
RA_OF_ASC_NODE = 317.9604
ARG_OF_PERICENTER = 219.6863
MEAN_ANOMALY   = 140.3184

EPHEMERIS_TYPE = 0
CLASSIFICATION_TYPE = U
NORAD_CAT_ID   = 21423
ELEMENT_SET_NO = 999
REV_AT_EPOCH   = 83763
BSTAR          = .68938E-4
MEAN_MOTION_DOT = .567E-5
MEAN_MOTION_DDOT = 0

CCSDS_OMM_VERS = 2.0
CREATION_DATE  = 
ORIGINATOR     = 

OBJECT_NAME    = ERS-1
OBJECT_ID      = 1991-050A
CENTER_NAME    = EARTH
REF_FRAME      = TEME
TIME_SYSTEM    = UTC
MEAN_ELEMENT_THEORY = SGP/SGP4

EPOCH          = 2025-11-25T18:36:11.484288
MEAN_MOTION    = 14.39345399
ECCENTRICITY   = .0032566
INCLINATION    = 98.7915
RA_OF_ASC_NODE = 340.4052
ARG_OF_PERICENTER = 148.9951
MEAN_ANOMALY   = 211.3167

EPHEMERIS_TYPE = 0
CLASSIFICATION_TYPE = U
NORAD_CAT_ID   = 21574
ELEMENT_SET_NO = 999
REV_AT_EPOCH   = 80078
BSTAR          = .13248E-3
MEAN_MOTION_DOT = .368E-5
MEAN_MOTION_DDOT = 0

CCSDS_OMM_VERS = 2.0
CREATION_DATE  = 
ORIGINATOR     = 

OBJECT_NAME    = ARIANE 40 R/B
OBJECT_ID      = 1991-050F
CENTER_NAME    = EARTH
REF_FRAME      = TEME
TIME_SYSTEM    = UTC
MEAN_ELEMENT_THEORY = SGP/SGP4

EPOCH          = 2025-11-25T17:25:59.492064
MEAN_MOTION    = 14.42792252
ECCENTRICITY   = .0003794
INCLINATION    = 98.2188
RA_OF_ASC_NODE = 20.7691
ARG_OF_PERICENTER = 47.4060
MEAN_ANOMALY   = 312.7450

EPHEMERIS_TYPE = 0
CLASSIFICATION_TYPE = U
NORAD_CAT_ID   = 21610
ELEMENT_SET_NO = 999
REV_AT_EPOCH   = 80400
BSTAR          = .14339E-3
MEAN_MOTION_DOT = .436E-5
MEAN_MOTION_DDOT = 0

CCSDS_OMM_VERS = 2.0
CREATION_DATE  = 
ORIGINATOR     = 

OBJECT_NAME    = INTERCOSMOS 25
OBJECT_ID      = 1991-086A
CENTER_NAME    = EARTH
REF_FRAME      = TEME
TIME_SYSTEM    = UTC
MEAN_ELEMENT_THEORY = SGP/SGP4

EPOCH          = 2025-11-25T15:03:52.479936
MEAN_MOTION    = 12.11642564
ECCENTRICITY   = .1487479
INCLINATION    = 82.6067
RA_OF_ASC_NODE = 12.9232
ARG_OF_PERICENTER = 341.2929
MEAN_ANOMALY   = 13.8569

EPHEMERIS_TYPE = 0
CLASSIFICATION_TYPE = U
NORAD_CAT_ID   = 21819
ELEMENT_SET_NO = 999
REV_AT_EPOCH   = 48408
BSTAR          = .24253E-3
MEAN_MOTION_DOT = .1234E-4
MEAN_MOTION_DDOT = 0

CCSDS_OMM_VERS = 2.0
CREATION_DATE  = 
ORIGINATOR     = 

OBJECT_NAME    = SL-8 R/B
OBJECT_ID      = 1992-008B
CENTER_NAME    = EARTH
REF_FRAME      = TEME
TIME_SYSTEM    = UTC
MEAN_ELEMENT_THEORY = SGP/SGP4

EPOCH          = 2025-11-25T19:57:25.889760
MEAN_MOTION    = 13.75953579
ECCENTRICITY   = .003599
INCLINATION    = 82.9267
RA_OF_ASC_NODE = 345.0244
ARG_OF_PERICENTER = 65.9040
MEAN_ANOMALY   = 107.7425

EPHEMERIS_TYPE = 0
CLASSIFICATION_TYPE = U
NORAD_CAT_ID   = 21876
ELEMENT_SET_NO = 999
REV_AT_EPOCH   = 69513
BSTAR          = .1328E-3
MEAN_MOTION_DOT = .145E-5
MEAN_MOTION_DDOT = 0

CCSDS_OMM_VERS = 2.0
CREATION_DATE  = 
ORIGINATOR     = 

OBJECT_NAME    = SL-8 R/B
OBJECT_ID      = 1992-020B
CENTER_NAME    = EARTH
REF_FRAME      = TEME
TIME_SYSTEM    = UTC
MEAN_ELEMENT_THEORY = SGP/SGP4

EPOCH          = 2025-11-25T19:42:41.057856
MEAN_MOTION    = 13.75523771
ECCENTRICITY   = .0027877
INCLINATION    = 82.9316
RA_OF_ASC_NODE = 230.8792
ARG_OF_PERICENTER = 226.2651
MEAN_ANOMALY   = 202.7691

EPHEMERIS_TYPE = 0
CLASSIFICATION_TYPE = U
NORAD_CAT_ID   = 21938
ELEMENT_SET_NO = 999
REV_AT_EPOCH   = 68685
BSTAR          = .67618E-4
MEAN_MOTION_DOT = .8E-6
MEAN_MOTION_DDOT = 0

CCSDS_OMM_VERS = 2.0
CREATION_DATE  = 
ORIGINATOR     = 

OBJECT_NAME    = USA 81
OBJECT_ID      = 1992-023A
CENTER_NAME    = EARTH
REF_FRAME      = TEME
TIME_SYSTEM    = UTC
MEAN_ELEMENT_THEORY = SGP/SGP4

EPOCH          = 2025-11-25T17:00:37.453248
MEAN_MOTION    = 14.32318084
ECCENTRICITY   = .0002208
INCLINATION    = 85.0095
RA_OF_ASC_NODE = 191.3972
ARG_OF_PERICENTER = 66.5722
MEAN_ANOMALY   = 293.5703

EPHEMERIS_TYPE = 0
CLASSIFICATION_TYPE = U
NORAD_CAT_ID   = 21949
ELEMENT_SET_NO = 999
REV_AT_EPOCH   = 7990
BSTAR          = .71574E-4
MEAN_MOTION_DOT = .213E-5
MEAN_MOTION_DDOT = 0

CCSDS_OMM_VERS = 2.0
CREATION_DATE  = 
ORIGINATOR     = 

OBJECT_NAME    = COSMOS 2219
OBJECT_ID      = 1992-076A
CENTER_NAME    = EARTH
REF_FRAME      = TEME
TIME_SYSTEM    = UTC
MEAN_ELEMENT_THEORY = SGP/SGP4

EPOCH          = 2025-11-25T19:37:48.516960
MEAN_MOTION    = 14.14066535
ECCENTRICITY   = .0018525
INCLINATION    = 71.0605
RA_OF_ASC_NODE = 235.2043
ARG_OF_PERICENTER = 350.8818
MEAN_ANOMALY   = 9.1965

EPHEMERIS_TYPE = 0
CLASSIFICATION_TYPE = U
NORAD_CAT_ID   = 22219
ELEMENT_SET_NO = 999
REV_AT_EPOCH   = 70369
BSTAR          = -.73562E-4
MEAN_MOTION_DOT = -.187E-5
MEAN_MOTION_DDOT = 0

CCSDS_OMM_VERS = 2.0
CREATION_DATE  = 
ORIGINATOR     = 

OBJECT_NAME    = SL-16 R/B
OBJECT_ID      = 1992-076B
CENTER_NAME    = EARTH
REF_FRAME      = TEME
TIME_SYSTEM    = UTC
MEAN_ELEMENT_THEORY = SGP/SGP4

EPOCH          = 2025-11-25T15:22:51.000384
MEAN_MOTION    = 14.16837378
ECCENTRICITY   = .0015097
INCLINATION    = 71.0013
RA_OF_ASC_NODE = 47.5495
ARG_OF_PERICENTER = 256.2658
MEAN_ANOMALY   = 210.9967

EPHEMERIS_TYPE = 0
CLASSIFICATION_TYPE = U
NORAD_CAT_ID   = 22220
ELEMENT_SET_NO = 999
REV_AT_EPOCH   = 70709
BSTAR          = .16617E-3
MEAN_MOTION_DOT = .285E-5
MEAN_MOTION_DDOT = 0

CCSDS_OMM_VERS = 2.0
CREATION_DATE  = 
ORIGINATOR     = 

OBJECT_NAME    = COSMOS 2221
OBJECT_ID      = 1992-080A
CENTER_NAME    = EARTH
REF_FRAME      = TEME
TIME_SYSTEM    = UTC
MEAN_ELEMENT_THEORY = SGP/SGP4

EPOCH          = 2025-11-25T14:59:28.627296
MEAN_MOTION    = 14.95666375
ECCENTRICITY   = .0014709
INCLINATION    = 82.5055
RA_OF_ASC_NODE = 18.7053
ARG_OF_PERICENTER = 176.2878
MEAN_ANOMALY   = 183.8456

EPHEMERIS_TYPE = 0
CLASSIFICATION_TYPE = U
NORAD_CAT_ID   = 22236
ELEMENT_SET_NO = 999
REV_AT_EPOCH   = 76523
BSTAR          = .23947E-3
MEAN_MOTION_DOT = .2693E-4
MEAN_MOTION_DDOT = 0

CCSDS_OMM_VERS = 2.0
CREATION_DATE  = 
ORIGINATOR     = 

OBJECT_NAME    = SL-16 R/B
OBJECT_ID      = 1992-093B
CENTER_NAME    = EARTH
REF_FRAME      = TEME
TIME_SYSTEM    = UTC
MEAN_ELEMENT_THEORY = SGP/SGP4

EPOCH          = 2025-11-25T18:47:31.123968
MEAN_MOTION    = 14.15427592
ECCENTRICITY   = .0002044
INCLINATION    = 71.0214
RA_OF_ASC_NODE = 222.3898
ARG_OF_PERICENTER = 122.5434
MEAN_ANOMALY   = 237.5886

EPHEMERIS_TYPE = 0
CLASSIFICATION_TYPE = U
NORAD_CAT_ID   = 22285
ELEMENT_SET_NO = 999
REV_AT_EPOCH   = 69845
BSTAR          = -.72531E-4
MEAN_MOTION_DOT = -.189E-5
MEAN_MOTION_DDOT = 0

